[{"OBJECT_NAME":"TIANMU-1 10","OBJECT_ID":"2023-101D","EPOCH":"2026-03-09T23:06:46.939392","MEAN_MOTION":15.2921896,"ECCENTRICITY":0.00069292,"INCLINATION":97.2749,"RA_OF_ASC_NODE":122.1027,"ARG_OF_PERICENTER":133.6162,"MEAN_ANOMALY":226.5654,"EPHEMERIS_TYPE":0,"CLASSIFICATION_TYPE":"U","NORAD_CAT_ID":57402,"ELEMENT_SET_NO":999,"REV_AT_EPOCH":14647,"BSTAR":0.00032238884,"MEAN_MOTION_DOT":9.075e-5,"MEAN_MOTION_DDOT":0},{"OBJECT_NAME":"STARLINK-36149","OBJECT_ID":"2025-288L","EPOCH":"2026-03-08T21:45:39.555648","MEAN_MOTION":15.27566533,"ECCENTRICITY":9.228e-5,"INCLINATION":42.9976,"RA_OF_ASC_NODE":28.2236,"ARG_OF_PERICENTER":288.8294,"MEAN_ANOMALY":71.2457,"EPHEMERIS_TYPE":0,"CLASSIFICATION_TYPE":"U","NORAD_CAT_ID":66969,"ELEMENT_SET_NO":999,"REV_AT_EPOCH":1516,"BSTAR":0.0011146104,"MEAN_MOTION_DOT":0.00030524,"MEAN_MOTION_DDOT":0}]
